CORVUS BC3              
1 43118U 18004H   24017.18507794  .00068894  00000+0  10302-2 0  9997
2 43118  97.3036  98.1370 0005407  75.7999 284.3856 15.54763228335085
GOMX-4B                 
1 43196U 18015E   24016.43801899  .00046265  00000+0  89717-3 0  9990
2 43196  97.5948 180.5637 0010460 153.3637 206.8151 15.47486553331790
GOMX-4A                 
1 43197U 18015F   24017.10643811  .00047282  00000+0  76381-3 0  9997
2 43197  97.5909 184.7019 0009568 142.0893 218.1034 15.52683087332136
CUBEBEL-1 (BSUSAT-1)    
1 43666U 18083E   24017.12116213  .00183647  00000+0  15606-2 0  9994
2 43666  97.3475  58.2045 0005766  60.8096 299.3742 15.69034307290329
CICERO 10               
1 43690U 18088A   24016.78268540  .00054603  00000+0  95907-3 0  9990
2 43690  85.0243 286.7752 0010467 123.5836 236.6422 15.50242704288417
PROXIMA I               
1 43694U 18088E   24016.89526775  .00080027  00000+0  10668-2 0  9992
2 43694  85.0157 281.1274 0012360  94.2519 266.0155 15.57745965288817
PROXIMA II              
1 43696U 18088G   24017.13147134  .00078278  00000+0  10582-2 0  9990
2 43696  85.0160 281.0710 0012265  94.3356 265.9307 15.57376741288832
SIRION PATHFINDER-2     
1 43759U 18099B   24016.83959052  .00006804  00000+0  53967-3 0  9999
2 43759  97.5440  77.3221 0015744  85.4960 274.8062 15.00737559279643
CORVUS BC4              
1 43767U 18099K   24016.67646871  .00005995  00000+0  48344-3 0  9995
2 43767  97.5357  74.8239 0011126 140.2310 219.9732 15.00201311279511
MOVE-II                 
1 43780U 18099Y   24016.72694564  .00019438  00000+0  12098-2 0  9991
2 43780  97.5440  81.7307 0008280 137.3037 222.8837 15.09612292279884
SPACEBEE-7              
1 43816U 18099BL  24017.16813545  .00014251  00000+0  95323-3 0  9993
2 43816  97.5713  83.1139 0012537  89.7365 270.5299 15.06990124279488
SPACEBEE-5              
1 43817U 18099BM  24016.74928724  .00273235  00000+0  40438-2 0  9998
2 43817  97.5598  98.1221 0003368 332.7809  27.3267 15.54320602280356
SPACEBEE-6              
1 43818U 18099BN  24016.69198819  .00025607  00000+0  14176-2 0  9995
2 43818  97.5634  86.0604 0011185  99.7586 260.4909 15.13764090279772
SHIELDS 1               
1 43850U 18104B   24017.06539600  .00013612  00000+0  42428-3 0  9992
2 43850  85.0244  25.9595 0009073 286.2241  73.8009 15.33077256282822
STF-1                   
1 43852U 18104D   24017.03447626  .00270853  00000+0  15241-2 0  9991
2 43852  85.0082  18.0887 0003372 146.5753 213.5732 15.78483955283635
ZACUBE-2                
1 43907U 18111AH  24017.15741448  .00098902  00000+0  11207-2 0  9993
2 43907  97.0980 258.8103 0011121 132.6562 227.5635 15.62000335282272
LUME 1                  
1 43908U 18111AJ  24016.64802500  .00323292  00000+0  13228-2 0  9992
2 43908  97.0951 265.2565 0009034 107.6456 252.5802 15.85212975282655
SONATE                  
1 44400U 19038Q   24016.87740725  .00020308  00000+0  75560-3 0  9994
2 44400  97.7055   5.0987 0016021 286.8251  73.1229 15.27416948250781
LUCKY-7                 
1 44406U 19038W   24016.93276637  .00031164  00000+0  97709-3 0  9994
2 44406  97.6993   7.6229 0013453 274.8267  85.1438 15.32920287250961
BEESAT 9                
1 44412U 19038AC  24016.90216962  .00074328  00000+0  14203-2 0  9999
2 44412  97.6866  12.2008 0007209 253.0032 107.0427 15.47818937250994
JAISAT-1                
1 44419U 19038F   24016.95907689  .00070678  00000+0  13575-2 0  9999
2 44419  97.6850  13.3705 0007009 246.4172 113.6342 15.47687266251381
DUCHIFAT-3              
1 44854U 19089C   24017.00707486  .00015700  00000+0  91925-3 0  9999
2 44854  36.9586 248.9907 0009812 285.9494  74.0170 15.11144564225138
M2 PATHFINDER           
1 45727U 20037E   24016.93023846  .00004160  00000+0  37817-3 0  9994
2 45727  97.7651 194.4052 0010456 274.2712  85.7314 14.95739244193175
NETSAT-4                
1 46504U 20068U   24016.85099767  .00011252  00000+0  66904-3 0  9997
2 46504  97.7893 330.5243 0011228 152.3609 207.8220 15.11389014181132
NETSAT-3                
1 46505U 20068V   24016.85512036  .00011116  00000+0  66786-3 0  9994
2 46505  97.7867 330.2017 0010151 159.6380 200.5256 15.11024292181133
NETSAT-1                
1 46506U 20068W   24016.84396917  .00008812  00000+0  54401-3 0  9992
2 46506  97.7883 329.9246 0008338 168.1399 192.0028 15.10117813181111
NETSAT-2                
1 46507U 20068X   24016.85946603  .00011621  00000+0  69283-3 0  9993
2 46507  97.7882 330.2156 0007566 171.8416 188.2938 15.11311315181086
WILDTRACKCUBE-SIMBA     
1 47941U 21022K   24017.13289083  .00015532  00000+0  79094-3 0  9997
2 47941  97.4773 275.6591 0016148 321.4533  38.5546 15.16772191155383
BEESAT-6                
1 47957U 21022AB  24015.95448919  .00063950  00000+0  19438-2 0  9999
2 47957  97.4689 279.7009 0009615 312.8553  47.1880 15.33772303155361
SMOG-1                  
1 47964U 21022AJ  24016.68537481  .00054604  00000+0  15840-2 0  9990
2 47964  97.4798 283.2164 0007998 290.0517  69.9865 15.35307497154657
BCCSAT-1                
1 48041U 21022AK  24016.71177882  .00044631  00000+0  15158-2 0  9997
2 48041  97.4790 281.0879 0007324 296.4225  63.6263 15.30324823154496
BEESAT-5                
1 48083U 21022AM  24016.67416415  .00067582  00000+0  18518-2 0  9999
2 48083  97.4557 280.9932 0007875 305.1155  54.9350 15.37031122154676
BEESAT-7                
1 48084U 21022AN  24016.71291579  .00049788  00000+0  14983-2 0  9997
2 48084  97.4729 280.7926 0009509 305.5798  54.4558 15.34159738154229
BEESAT-8                
1 48085U 21022AP  24016.66126410  .00028858  00000+0  12202-2 0  9990
2 48085  97.4853 278.2737 0013266 314.7934  45.2223 15.23096841154599
LEDSAT                  
1 49069U 21073D   24017.17181579  .00015799  00000+0  74511-3 0  9995
2 49069  97.4579  89.8472 0022808  96.5966 263.7866 15.19325880133333
<!DOCTYPE html PUBLIC "-//W3C//DTD XHTML 1.0 Strict//EN" "http://www.w3.org/TR/xhtml1/DTD/xhtml1-strict.dtd">
<html xmlns="http://www.w3.org/1999/xhtml">
<head>
<meta http-equiv="Content-Type" content="text/html; charset=iso-8859-1"/>
<title>404 - File Not Found.</title>
<style type="text/css">
<!--
body{margin:0;font-size:.7em;font-family:Verdana, Arial, Helvetica, sans-serif;background:#EEEEEE;}
fieldset{padding:0 15px 10px 15px;}
h1{font-size:2.4em;margin:0;color:#FFF;}
h2{font-size:1.7em;margin:0;color:#CC0000;}
h3{font-size:1.2em;margin:10px 0 0 0;color:#000000;}
#header{width:96%;margin:0 0 0 0;padding:6px 2% 6px 2%;font-family:"trebuchet MS", Verdana, sans-serif;color:#FFF;
background-color:#555555;}
#content{margin:0 0 0 2%;position:relative;}
.content-container{background:#FFF;width:96%;margin-top:8px;padding:10px;position:relative;}
-->
</style>
</head>
<body>
<div id="header"><h1>Server Error</h1></div>
<div id="content">
 <div class="content-container"><fieldset>
  <h2>404 - File Not Found.</h2>
  <h3>File not found for celestrak.org/NORAD/elements/active.txt.</h3>
  <h3>Please contact <a href="mailto:ts.kelso@celestrak.org">ts.kelso@celestrak.org</a> if you have other questions.</h3>
 </fieldset></div>
</div>
</body>
</html>
BEIJING 1               
1 28890U 05043A   24017.10785871  .00000843  00000+0  17690-3 0  9990
2 28890  98.1804 141.2985 0015434 158.1240 202.0623 14.62094980971675
HJ-1A                   
1 33320U 08041A   24017.12984152  .00002398  00000+0  32881-3 0  9996
2 33320  97.6361  31.7167 0021393 144.0969 216.1686 14.79148016827874
HJ-1B                   
1 33321U 08041B   24017.10907240  .00001756  00000+0  23786-3 0  9999
2 33321  97.6343  36.2036 0038419 190.7043 169.3356 14.79660078827889
YAOGAN 4                
1 33446U 08061A   24016.97941475  .00002530  00000+0  34818-3 0  9990
2 33446  97.8699 311.9413 0016578  61.9294 298.3591 14.79057040815053
DEIMOS-1                
1 35681U 09041A   24017.11399881  .00001252  00000+0  20238-3 0  9998
2 35681  97.6754 207.2370 0002320 123.3852 236.7579 14.72941081776922
UK-DMC 2                
1 35683U 09041C   24017.11196303  .00001813  00000+0  29122-3 0  9998
2 35683  97.7559 171.2967 0001246 100.4648 259.6701 14.72761881776621
RISAT 1                 
1 38248U 12017A   24017.08159581  .00011494  00000+0  53411-3 0  9992
2 38248  97.5344  34.3184 0005034  68.1738 292.0032 15.20140352646464
DMC3-FM1                
1 40715U 15032A   24017.12971846  .00001417  00000+0  17960-3 0  9998
2 40715  97.7724 260.3314 0007249  73.9451 286.2561 14.83255076459037
DMC3-FM2                
1 40716U 15032B   24017.15296870  .00001404  00000+0  17793-3 0  9999
2 40716  97.7775 261.3243 0009212  77.1176 283.1067 14.83256515459034
DMC3-FM3                
1 40717U 15032C   24017.17466539  .00001405  00000+0  17809-3 0  9992
2 40717  97.7821 262.5385 0010683  73.9199 286.3191 14.83248238459047
NOAA 15                 
1 25338U 98030A   24017.10307611  .00000302  00000+0  14321-3 0  9992
2 25338  98.5860  47.2889 0011138  53.0704 307.1495 14.26473514335759
DMSP 5D-3 F16 (USA 172) 
1 28054U 03048A   24017.16822277  .00000304  00000+0  18432-3 0  9990
2 28054  99.0202  22.2230 0008075 119.7343  13.6647 14.13930362 44795
NOAA 18                 
1 28654U 05018A   24017.12391257  .00000339  00000+0  20513-3 0  9991
2 28654  98.8901  95.2846 0015048 132.4329 227.8118 14.13101606961781
METEOSAT-9 (MSG-2)      
1 28912U 05049B   24016.74582149  .00000127  00000+0  00000+0 0  9991
2 28912   7.3362  62.1315 0000502 211.0989 156.5946  1.00271872 66208
EWS-G1 (GOES 13)        
1 29155U 06018A   24016.90649233 -.00000283  00000+0  00000+0 0  9998
2 29155   2.2282  87.1145 0087879 248.4309 240.8440  0.99156879 34525
